NORAD_CAT_ID,OBJECT_NAME,OBJECT_TYPE,EPOCH,MEAN_MOTION,ECCENTRICITY,INCLINATION,RA_OF_ASC_NODE,ARG_OF_PERICENTER,MEAN_ANOMALY,BSTAR,MEAN_MOTION_DOT,MEAN_MOTION_DDOT,TLE_LINE0,TLE_LINE1,TLE_LINE2,SEMIMAJOR_AXIS,PERIOD,APOGEE,PERIGEE,DECAYED
55756.0,STARLINK-5614,PAYLOAD,2023-03-20 06:00:00,15.72462528,0.0003636,69.9932,108.8429,266.7084,55.3838,-0.0078698,-0.00942289,0.0,0 STARLINK-5614,1 55756U 23028R   23079.25001157 -.00942289  00000-0 -78698-2 0  9991,2 55756  69.9932 108.8429 0003636 266.7084  55.3838 15.72462528  3255,6729.999,91.576,354.311,349.417,0.0
55756.0,STARLINK-5614,PAYLOAD,2023-03-20 14:00:01,15.71812789,0.0003656,69.9925,107.9027,274.3714,133.6737,-0.0079386,-0.00926382,0.0,0 STARLINK-5614,1 55756U 23028R   23079.58334491 -.00926382  00000-0 -79386-2 0  9998,2 55756  69.9925 107.9027 0003656 274.3714 133.6737 15.71812789  1307,6731.853,91.614,356.179,351.257,0.0
55756.0,STARLINK-5614,PAYLOAD,2023-03-20 22:00:01,15.71101614,0.0003427,69.9928,106.9635,267.0977,226.2123,-0.0072456,-0.00830007,0.0,0 STARLINK-5614,1 55756U 23028R   23079.91668981 -.00830007  00000-0 -72456-2 0  9998,2 55756  69.9928 106.9635 0003427 267.0977 226.2123 15.71101614  3364,6733.884,91.655,358.057,353.442,0.0
55756.0,STARLINK-5614,PAYLOAD,2023-03-21 08:00:01,15.70140094,0.0003314,69.9938,105.7905,269.0029,59.64,-0.0028796,-0.00335981,0.0,0 STARLINK-5614,1 55756U 23028R   23080.33334491 -.00335981  00000-0 -28796-2 0  9991,2 55756  69.9938 105.7905 0003314 269.0029  59.6400 15.70140094  3435,6736.633,91.712,360.731,356.266,0.0
55756.0,STARLINK-5614,PAYLOAD,2023-03-21 14:00:01,15.69916982,0.0003462,69.9943,105.0869,271.2301,30.091,4.3929e-05,5.071e-05,0.0,0 STARLINK-5614,1 55756U 23028R   23080.58335648  .00005071  00000-0  43929-4 0  9992,2 55756  69.9943 105.0869 0003462 271.2301  30.0910 15.69916982  3462,6737.272,91.725,361.469,356.804,0.0
55756.0,STARLINK-5614,PAYLOAD,2023-03-21 22:00:00,15.69881905,0.0003427,69.9966,104.1494,264.1933,120.4044,0.00075987,0.00092003,0.0,0 STARLINK-5614,1 55756U 23028R   23080.91667824  .00092003  00000-0  75987-3 0  9992,2 55756  69.9966 104.1494 0003427 264.1933 120.4044 15.69881905  1303,6737.372,91.727,361.546,356.928,0.0
55756.0,STARLINK-5614,PAYLOAD,2023-03-22 22:00:00,15.69845858,0.0003431,69.9989,101.3371,263.7069,10.9211,0.0011916,0.00145102,0.0,0 STARLINK-5614,1 55756U 23028R   23081.91667824  .00145102  00000-0  11916-2 0  9993,2 55756  69.9989 101.3371 0003431 263.7069  10.9211 15.69845858  3679,6737.475,91.729,361.652,357.028,0.0
55756.0,STARLINK-5614,PAYLOAD,2023-03-23 06:00:00,15.69923443,0.0003446,70.0,100.3998,265.7717,92.1446,-8.0027e-05,-9.824e-05,0.0,0 STARLINK-5614,1 55756U 23028R   23082.25001157 -.00009824  00000-0 -80027-4 0  9995,2 55756  70.0000 100.3998 0003446 265.7717  92.1446 15.69923443  3734,6737.253,91.724,361.44,356.796,0.0
55756.0,STARLINK-5614,PAYLOAD,2023-03-23 14:00:01,15.69964159,0.0003409,70.0002,99.4624,269.2212,172.0819,-0.00044028,-0.00052909,0.0,0 STARLINK-5614,1 55756U 23028R   23082.58335648 -.00052909  00000-0 -44028-3 0  9998,2 55756  70.0002  99.4624 0003409 269.2212 172.0819 15.69964159  1300,6737.137,91.722,361.298,356.705,0.0
55756.0,STARLINK-5614,PAYLOAD,2023-03-24 17:00:11,15.70089732,0.0003637,70.0007,96.3,267.0705,51.2101,-0.005457,-0.0061479,0.0,0 STARLINK-5614,1 55756U 23028R   23083.70846065 -.00614790  00000-0 -54570-2 0  9997,2 55756  70.0007  96.3000 0003637 267.0705  51.2101 15.70089732  3957,6736.777,91.715,361.092,356.192,0.0
55756.0,STARLINK-5614,PAYLOAD,2023-03-24 22:00:01,15.69836573,0.0003668,70.0008,95.7151,265.308,149.4948,-0.0062491,-0.00690422,0.0,0 STARLINK-5614,1 55756U 23028R   23083.91668981 -.00690422  00000-0 -62491-2 0  9996,2 55756  70.0008  95.7151 0003668 265.3080 149.4948 15.69836573  1306,6737.502,91.729,361.838,356.895,0.0
55756.0,STARLINK-5614,PAYLOAD,2023-03-25 03:53:09,15.69716857,0.0004832,69.9995,95.0255,280.431,79.634,-0.00099882,-0.00117684,0.0,0 STARLINK-5614,1 55756U 23028R   23084.16191755 -.00117684  00000-0 -99882-3 0  9993,2 55756  69.9995  95.0255 0004832 280.4310  79.6340 15.69716857  4028,6737.844,91.736,362.965,356.453,0.0
55756.0,STARLINK-5614,PAYLOAD,2023-03-25 10:00:21,15.69383158,0.0003369,69.9995,94.3096,280.9558,79.1258,-0.0020774,-0.00237696,0.0,0 STARLINK-5614,1 55756U 23028R   23084.41691058 -.00237696  00000-0 -20774-2 0  9991,2 55756  69.9995  94.3096 0003369 280.9558  79.1258 15.69383158  4067,6738.799,91.756,362.935,358.394,0.0
55756.0,STARLINK-5614,PAYLOAD,2023-03-25 13:03:57,15.69248511,0.0004029,69.9996,93.9513,258.8343,101.2399,-0.002306,-0.0026168,0.0,0 STARLINK-5614,1 55756U 23028R   23084.54441169 -.00261680  00000-0 -23060-2 0  9992,2 55756  69.9996  93.9513 0004029 258.8343 101.2399 15.69248511  4085,6739.185,91.764,363.765,358.334,0.0
55756.0,STARLINK-5614,PAYLOAD,2023-03-26 13:32:52,15.68984489,0.0001146,70.0031,91.0905,236.7546,123.3539,-1.1567e-05,-1.546e-05,0.0,0 STARLINK-5614,1 55756U 23028R   23085.56449663 -.00001546  00000-0 -11567-4 0  9996,2 55756  70.0031  91.0905 0001146 236.7546 123.3539 15.68984489  4248,6739.941,91.779,362.578,361.033,0.0
55756.0,STARLINK-5614,PAYLOAD,2023-03-27 06:00:00,15.65453189,0.0003583,70.0015,89.1771,271.0171,348.6424,-0.0099108,-0.00906563,0.0,0 STARLINK-5614,1 55756U 23028R   23086.25001157 -.00906563  00000-0 -99108-2 0  9993,2 55756  70.0015  89.1771 0003583 271.0171 348.6424 15.65453189  4354,6750.073,91.986,374.356,369.519,0.0
55756.0,STARLINK-5614,PAYLOAD,2023-03-27 14:00:01,15.64842443,0.0003687,70.0013,88.2465,272.5457,64.6867,-0.01085,-0.00962881,0.0,0 STARLINK-5614,1 55756U 23028R   23086.58334491 -.00962881  00000-0 -10850-1 0  9990,2 55756  70.0013  88.2465 0003687 272.5457  64.6867 15.64842443  1302,6751.829,92.022,376.183,371.205,0.0
55756.0,STARLINK-5614,PAYLOAD,2023-03-27 22:00:00,15.64153103,0.000355,70.0013,87.3172,268.1079,145.9419,-0.01021,-0.00888392,0.0,0 STARLINK-5614,1 55756U 23028R   23086.91667824 -.00888392  00000-0 -10210-1 0  9990,2 55756  70.0013  87.3172 0003550 268.1079 145.9419 15.64153103  1301,6753.813,92.063,378.075,373.28,0.0
55756.0,STARLINK-5614,PAYLOAD,2023-03-28 08:00:01,15.63310254,0.0003427,70.0013,86.1566,271.8164,327.1574,-0.010108,-0.00853728,0.0,0 STARLINK-5614,1 55756U 23028R   23087.33334491 -.00853728  00000-0 -10108-1 0  9999,2 55756  70.0013  86.1566 0003427 271.8164 327.1574 15.63310254  4528,6756.24,92.112,380.42,375.789,0.0
55756.0,STARLINK-5614,PAYLOAD,2023-03-28 14:00:01,15.62897471,0.0003389,70.0009,85.4609,271.6471,293.6651,-0.012006,-0.00984125,0.0,0 STARLINK-5614,1 55756U 23028R   23087.58334491 -.00984125  00000-0 -12006-1 0  9991,2 55756  70.0009  85.4609 0003389 271.6471 293.6651 15.62897471  1305,6757.429,92.137,381.584,377.004,0.0
55756.0,STARLINK-5614,PAYLOAD,2023-03-28 22:00:00,15.62204663,0.0003448,70.0013,84.534,263.5403,16.2433,-0.011193,-0.00900823,0.0,0 STARLINK-5614,1 55756U 23028R   23087.91667824 -.00900823  00000-0 -11193-1 0  9996,2 55756  70.0013  84.5340 0003448 263.5403  16.2433 15.62204663  1305,6759.427,92.177,383.623,378.961,0.0
55756.0,STARLINK-5614,PAYLOAD,2023-03-29 00:00:00,15.62076063,0.0003517,70.0015,84.3024,265.8428,122.4248,-0.012065,-0.00960146,0.0,0 STARLINK-5614,1 55756U 23028R   23088.00001157 -.00960146  00000-0 -12065-1 0  9991,2 55756  70.0015  84.3024 0003517 265.8428 122.4248 15.62076063  4626,6759.798,92.185,384.04,379.286,0.0
55756.0,STARLINK-5614,PAYLOAD,2023-03-29 14:00:01,15.6092647,0.0003336,70.001,82.6829,271.1249,155.2347,-0.012659,-0.00963052,0.0,0 STARLINK-5614,1 55756U 23028R   23088.58334491 -.00963052  00000-0 -12659-1 0  9992,2 55756  70.0010  82.6829 0003336 271.1249 155.2347 15.60926470  4713,6763.117,92.253,387.238,382.725,0.0
55756.0,STARLINK-5614,PAYLOAD,2023-03-29 22:00:00,15.60256792,0.0003249,70.0011,81.7589,265.8493,232.6254,-0.012276,-0.00914761,0.0,0 STARLINK-5614,1 55756U 23028R   23088.91667824 -.00914761  00000-0 -12276-1 0  9996,2 55756  70.0011  81.7589 0003249 265.8493 232.6254 15.60256792  1303,6765.052,92.293,389.115,384.719,0.0
55756.0,STARLINK-5614,PAYLOAD,2023-03-30 00:00:00,15.60118127,0.0003301,70.0013,81.5279,264.4933,341.8822,-0.012966,-0.00956782,0.0,0 STARLINK-5614,1 55756U 23028R   23089.00001157 -.00956782  00000-0 -12966-1 0  9993,2 55756  70.0013  81.5279 0003301 264.4933 341.8822 15.60118127  4780,6765.453,92.301,389.551,385.084,0.0
55756.0,STARLINK-5614,PAYLOAD,2023-03-30 14:00:01,15.58964604,0.0003227,70.0008,79.9131,271.9353,8.4285,-0.013549,-0.00956655,0.0,0 STARLINK-5614,1 55756U 23028R   23089.58334491 -.00956655  00000-0 -13549-1 0  9993,2 55756  70.0008  79.9131 0003227 271.9353   8.4285 15.58964604  4873,6768.789,92.369,392.839,388.47,0.0
55756.0,STARLINK-5614,PAYLOAD,2023-03-30 22:00:00,15.58303426,0.0003436,70.0012,78.9917,266.5015,83.629,-0.013341,-0.00922106,0.0,0 STARLINK-5614,1 55756U 23028R   23089.91667824 -.00922106  00000-0 -13341-1 0  9993,2 55756  70.0012  78.9917 0003436 266.5015  83.6290 15.58303426  1301,6770.704,92.408,394.895,390.243,0.0
55756.0,STARLINK-5614,PAYLOAD,2023-03-31 06:00:00,15.57613982,0.0003364,70.0013,78.0713,272.7164,146.4184,-0.012977,-0.00878004,0.0,0 STARLINK-5614,1 55756U 23028R   23090.25001157 -.00878004  00000-0 -12977-1 0  9994,2 55756  70.0013  78.0713 0003364 272.7164 146.4184 15.57613982  4977,6772.702,92.449,396.845,392.288,0.0
55756.0,STARLINK-5614,PAYLOAD,2023-03-31 22:00:00,15.56348913,0.0003245,70.0008,76.2326,265.4745,289.2683,-0.014395,-0.00924259,0.0,0 STARLINK-5614,1 55756U 23028R   23090.91667824 -.00924259  00000-0 -14395-1 0  9996,2 55756  70.0008  76.2326 0003245 265.4745 289.2683 15.56348913  5084,6776.371,92.524,400.435,396.037,0.0
55756.0,STARLINK-5614,PAYLOAD,2023-04-01 14:00:01,15.55045044,0.0003295,70.0006,74.3974,271.9974,55.2505,-0.015519,-0.00947076,0.0,0 STARLINK-5614,1 55756U 23028R   23091.58334491 -.00947076  00000-0 -15519-1 0  9992,2 55756  70.0006  74.3974 0003295 271.9974  55.2505 15.55045044  1304,6780.159,92.602,404.258,399.79,0.0
